{
  "type": "FeatureCollection",
  "features": [
    {
      "type": "Feature",
      "properties": {
        "norad_id": 32393,
        "name": "COSMOS 2434 (721)",
        "group": "gnss",
        "lat": -34.58042773855413,
        "lon": 178.61950480318094,
        "alt_km": 19138.342511068102,
        "timestamp": "2025-12-18T19:29:52.786757+00:00",
        "meta_object_name": "COSMOS 2434 (721)",
        "meta_object_id": "2007-065A",
        "meta_epoch": "2025-12-18T04:23:29.536800",
        "meta_mean_motion": 2.13101428,
        "meta_eccentricity": 0.00044399,
        "meta_inclination": 64.3148,
        "meta_ra_of_asc_node": 198.0196,
        "meta_arg_of_pericenter": 71.1558,
        "meta_mean_anomaly": 127.0412,
        "meta_ephemeris_type": 0,
        "meta_classification_type": "U",
        "meta_norad_cat_id": 32393,
        "meta_element_set_no": 999,
        "meta_rev_at_epoch": 13991,
        "meta_bstar": 0,
        "meta_mean_motion_dot": 1.1e-06,
        "meta_mean_motion_ddot": 0,
        "tle_line1": "1 32393U 07065A   25352.18298075  .00000110  00000+0  00000+0 0  9995",
        "tle_line2": "2 32393  64.3148 198.0196 0004439  71.1558 127.0412  2.13101428139911"
      },
      "geometry": {
        "type": "Point",
        "coordinates": [
          178.61950480318094,
          -34.58042773855413
        ]
      }
    },
    {
      "type": "Feature",
      "properties": {
        "norad_id": 32395,
        "name": "COSMOS 2436 (723)",
        "group": "gnss",
        "lat": 63.97088223383759,
        "lon": -62.1383588998261,
        "alt_km": 19119.10532105771,
        "timestamp": "2025-12-18T19:29:52.786769+00:00",
        "meta_object_name": "COSMOS 2436 (723)",
        "meta_object_id": "2007-065C",
        "meta_epoch": "2025-12-16T08:11:52.503360",
        "meta_mean_motion": 2.13100112,
        "meta_eccentricity": 0.00177699,
        "meta_inclination": 64.3235,
        "meta_ra_of_asc_node": 198.1521,
        "meta_arg_of_pericenter": 9.2217,
        "meta_mean_anomaly": 349.3751,
        "meta_ephemeris_type": 0,
        "meta_classification_type": "U",
        "meta_norad_cat_id": 32395,
        "meta_element_set_no": 999,
        "meta_rev_at_epoch": 13982,
        "meta_bstar": 0,
        "meta_mean_motion_dot": 1.1e-06,
        "meta_mean_motion_ddot": 0,
        "tle_line1": "1 32395U 07065C   25350.34157990  .00000110  00000+0  00000+0 0  9993",
        "tle_line2": "2 32395  64.3235 198.1521 0017769   9.2217 349.3751  2.13100112139821"
      },
      "geometry": {
        "type": "Point",
        "coordinates": [
          -62.1383588998261,
          63.97088223383759
        ]
      }
    },
    {
      "type": "Feature",
      "properties": {
        "norad_id": 32711,
        "name": "GPS BIIRM-6 (PRN 07)",
        "group": "gnss",
        "lat": 50.38185685984187,
        "lon": -82.57302722155573,
        "alt_km": 20559.741211563705,
        "timestamp": "2025-12-18T19:29:52.786780+00:00",
        "meta_object_name": "GPS BIIRM-6 (PRN 07)",
        "meta_object_id": "2008-012A",
        "meta_epoch": "2025-12-17T15:49:41.763360",
        "meta_mean_motion": 2.00565887,
        "meta_eccentricity": 0.02026439,
        "meta_inclination": 54.4776,
        "meta_ra_of_asc_node": 157.1765,
        "meta_arg_of_pericenter": 245.0018,
        "meta_mean_anomaly": 112.8836,
        "meta_ephemeris_type": 0,
        "meta_classification_type": "U",
        "meta_norad_cat_id": 32711,
        "meta_element_set_no": 999,
        "meta_rev_at_epoch": 13011,
        "meta_bstar": 0,
        "meta_mean_motion_dot": 7.7e-07,
        "meta_mean_motion_ddot": 0,
        "tle_line1": "1 32711U 08012A   25351.65951115  .00000077  00000+0  00000+0 0  9996",
        "tle_line2": "2 32711  54.4776 157.1765 0202643 245.0018 112.8836  2.00565887130114"
      },
      "geometry": {
        "type": "Point",
        "coordinates": [
          -82.57302722155573,
          50.38185685984187
        ]
      }
    },
    {
      "type": "Feature",
      "properties": {
        "norad_id": 35752,
        "name": "GPS BIIRM-8 (PRN 05)",
        "group": "gnss",
        "lat": 38.98071530780037,
        "lon": -178.38307009558753,
        "alt_km": 20086.693056772056,
        "timestamp": "2025-12-18T19:29:52.786792+00:00",
        "meta_object_name": "GPS BIIRM-8 (PRN 05)",
        "meta_object_id": "2009-043A",
        "meta_epoch": "2025-12-18T04:21:14.473728",
        "meta_mean_motion": 2.00565462,
        "meta_eccentricity": 0.00516833,
        "meta_inclination": 56.0947,
        "meta_ra_of_asc_node": 34.5684,
        "meta_arg_of_pericenter": 81.8123,
        "meta_mean_anomaly": 312.8651,
        "meta_ephemeris_type": 0,
        "meta_classification_type": "U",
        "meta_norad_cat_id": 35752,
        "meta_element_set_no": 999,
        "meta_rev_at_epoch": 11973,
        "meta_bstar": 0,
        "meta_mean_motion_dot": -7.2e-07,
        "meta_mean_motion_ddot": 0,
        "tle_line1": "1 35752U 09043A   25352.18141752 -.00000072  00000+0  00000+0 0  9992",
        "tle_line2": "2 35752  56.0947  34.5684 0051683  81.8123 312.8651  2.00565462119738"
      },
      "geometry": {
        "type": "Point",
        "coordinates": [
          -178.38307009558753,
          38.98071530780037
        ]
      }
    },
    {
      "type": "Feature",
      "properties": {
        "norad_id": 36111,
        "name": "COSMOS 2456 (730)",
        "group": "gnss",
        "lat": 52.95939745305265,
        "lon": -141.1691065677077,
        "alt_km": 19131.915244112955,
        "timestamp": "2025-12-18T19:29:52.786804+00:00",
        "meta_object_name": "COSMOS 2456 (730)",
        "meta_object_id": "2009-070A",
        "meta_epoch": "2025-12-18T06:55:18.738048",
        "meta_mean_motion": 2.13103695,
        "meta_eccentricity": 0.00031882,
        "meta_inclination": 64.9035,
        "meta_ra_of_asc_node": 77.1481,
        "meta_arg_of_pericenter": 297.6027,
        "meta_mean_anomaly": 138.5871,
        "meta_ephemeris_type": 0,
        "meta_classification_type": "U",
        "meta_norad_cat_id": 36111,
        "meta_element_set_no": 999,
        "meta_rev_at_epoch": 12457,
        "meta_bstar": 0,
        "meta_mean_motion_dot": -4.1e-07,
        "meta_mean_motion_ddot": 0,
        "tle_line1": "1 36111U 09070A   25352.28841132 -.00000041  00000+0  00000+0 0  9998",
        "tle_line2": "2 36111  64.9035  77.1481 0003188 297.6027 138.5871  2.13103695124574"
      },
      "geometry": {
        "type": "Point",
        "coordinates": [
          -141.1691065677077,
          52.95939745305265
        ]
      }
    },
    {
      "type": "Feature",
      "properties": {
        "norad_id": 36112,
        "name": "COSMOS 2457 (733)",
        "group": "gnss",
        "lat": -56.69554468841441,
        "lon": -57.56841122941585,
        "alt_km": 19135.6264810568,
        "timestamp": "2025-12-18T19:29:52.786815+00:00",
        "meta_object_name": "COSMOS 2457 (733)",
        "meta_object_id": "2009-070B",
        "meta_epoch": "2025-12-17T13:03:42.379200",
        "meta_mean_motion": 2.13100979,
        "meta_eccentricity": 0.00046214,
        "meta_inclination": 64.8886,
        "meta_ra_of_asc_node": 77.0209,
        "meta_arg_of_pericenter": 159.9242,
        "meta_mean_anomaly": 194.4541,
        "meta_ephemeris_type": 0,
        "meta_classification_type": "U",
        "meta_norad_cat_id": 36112,
        "meta_element_set_no": 999,
        "meta_rev_at_epoch": 12455,
        "meta_bstar": 0,
        "meta_mean_motion_dot": -4.8e-07,
        "meta_mean_motion_ddot": 0,
        "tle_line1": "1 36112U 09070B   25351.54424050 -.00000048  00000+0  00000+0 0  9990",
        "tle_line2": "2 36112  64.8886  77.0209 0004621 159.9242 194.4541  2.13100979124552"
      },
      "geometry": {
        "type": "Point",
        "coordinates": [
          -57.56841122941585,
          -56.69554468841441
        ]
      }
    },
    {
      "type": "Feature",
      "properties": {
        "norad_id": 36402,
        "name": "COSMOS 2460 (732)",
        "group": "gnss",
        "lat": -56.83052847230793,
        "lon": -175.29159538110554,
        "alt_km": 19130.003273247985,
        "timestamp": "2025-12-18T19:29:52.786826+00:00",
        "meta_object_name": "COSMOS 2460 (732)",
        "meta_object_id": "2010-007C",
        "meta_epoch": "2025-12-18T04:47:08.780352",
        "meta_mean_motion": 2.13106298,
        "meta_eccentricity": 0.00025974,
        "meta_inclination": 65.5265,
        "meta_ra_of_asc_node": 320.5882,
        "meta_arg_of_pericenter": 276.4168,
        "meta_mean_anomaly": 220.1486,
        "meta_ephemeris_type": 0,
        "meta_classification_type": "U",
        "meta_norad_cat_id": 36402,
        "meta_element_set_no": 999,
        "meta_rev_at_epoch": 12287,
        "meta_bstar": 0,
        "meta_mean_motion_dot": -6.4e-07,
        "meta_mean_motion_ddot": 0,
        "tle_line1": "1 36402U 10007C   25352.19940718 -.00000064  00000+0  00000+0 0  9998",
        "tle_line2": "2 36402  65.5265 320.5882 0002597 276.4168 220.1486  2.13106298122876"
      },
      "geometry": {
        "type": "Point",
        "coordinates": [
          -175.29159538110554,
          -56.83052847230793
        ]
      }
    }
  ]
}